[{"OBJECT_NAME":"KINEIS-1A","OBJECT_ID":"2024-114F","EPOCH":"2026-03-09T23:45:50.090112","MEAN_MOTION":14.80439392,"ECCENTRICITY":0.00048167,"INCLINATION":97.9936,"RA_OF_ASC_NODE":93.6517,"ARG_OF_PERICENTER":91.725,"MEAN_ANOMALY":268.4514,"EPHEMERIS_TYPE":0,"CLASSIFICATION_TYPE":"U","NORAD_CAT_ID":60084,"ELEMENT_SET_NO":999,"REV_AT_EPOCH":9271,"BSTAR":0.00016296213,"MEAN_MOTION_DOT":1.193e-5,"MEAN_MOTION_DDOT":0},{"OBJECT_NAME":"CZ-6A DEB","OBJECT_ID":"2022-151YY","EPOCH":"2026-03-08T15:55:08.570496","MEAN_MOTION":14.70419161,"ECCENTRICITY":0.00799942,"INCLINATION":98.627,"RA_OF_ASC_NODE":129.135,"ARG_OF_PERICENTER":233.4282,"MEAN_ANOMALY":125.9542,"EPHEMERIS_TYPE":0,"CLASSIFICATION_TYPE":"U","NORAD_CAT_ID":55550,"ELEMENT_SET_NO":999,"REV_AT_EPOCH":16933,"BSTAR":0.0032367463,"MEAN_MOTION_DOT":0.00020586,"MEAN_MOTION_DDOT":0}]
